COSMOS 2251 DEB         
1 38199U 93036BSP 19289.95452318  .00000155  00000-0  14244-3 0  9996
2 38199  73.9545 142.0197 0379687 151.7209 210.5106 13.61347125468897
COSMOS 2251 DEB         
1 38200U 93036BSQ 19288.50815160  .00003551  00000-0  26042-3 0  9999
2 38200  74.0603 349.8505 0086064 218.9367 140.5605 15.00968496129774
COSMOS 2251 DEB         
1 38208U 93036BSY 19291.89245462  .00000781  00000-0  22930-3 0  9999
2 38208  74.0234  12.9419 0018003 289.1272 188.2284 14.45382237434274
COSMOS 2251 DEB         
1 38210U 93036BTA 19291.15102788  .00001452  00000-0  24880-3 0  9996
2 38210  74.0203 192.6157 0024168 152.1226 208.1246 14.69578088360988
COSMOS 2251 DEB         
1 38212U 93036BTC 19290.47337174  .00000161  00000-0  32422-4 0  9999
2 38212  74.0533 106.6272 0114769  43.3258 317.6863 14.66040757485783
COSMOS 2251 DEB         
1 38213U 93036BTD 19291.84586116  .00000984  00000-0  25616-3 0  9993
2 38213  74.0490 350.2557 0022982 243.5874 116.2928 14.50805691515072
COSMOS 2251 DEB         
1 38214U 93036BTE 19291.49014417  .00011527  00000-0  54606-3 0  9991
2 38214  74.0433 351.2141 0011668 304.4626  55.5468 15.19320550532694
COSMOS 2251 DEB         
1 38215U 93036BTF 19291.45368566  .00002294  00000-0  44404-3 0  9991
2 38215  74.0271 294.4848 0013282 207.6288 303.0569 14.63890759417628
COSMOS 2251 DEB         
1 38216U 93036BTG 19292.27813846  .00007230  00000-0  64932-3 0  9992
2 38216  74.0155 144.9481 0007007   1.5939 358.5267 14.95862235469208
COSMOS 2251 DEB         
1 38219U 93036BTK 19292.81515691  .00011157  00000-0  49125-3 0  9992
2 38219  73.6509 108.0749 0024439 186.9467 173.1394 15.21640655542865
COSMOS 2251 DEB         
1 38220U 93036BTL 19291.58385688  .00000851  00000-0  24425-3 0  9993
2 38220  74.0361  15.2237 0017445 270.4127  89.5032 14.46360534527717
COSMOS 2251 DEB         
1 38221U 93036BTM 19291.12566716  .00001415  00000-0  24045-3 0  9992
2 38221  74.0097 207.7037 0079242 147.0187 213.5964 14.68113540468093
COSMOS 2251 DEB         
1 38478U 93036BTN 19291.83623769  .00002127  00000-0  21358-3 0  9991
2 38478  74.0140 355.6581 0044389 320.6853  39.1108 14.91289794491680
COSMOS 2251 DEB         
1 38479U 93036BTP 19289.38716616  .00000273  00000-0  13078-3 0  9993
2 38479  74.0118 289.3426 0117996 200.9048 227.8418 14.20067745508847
COSMOS 2251 DEB         
1 38480U 93036BTQ 19292.21875007  .00001064  00000-0  68050-4 0  9991
2 38480  73.8471 134.6074 0054378 303.8312  55.7709 15.09111977540976
COSMOS 2251 DEB         
1 38481U 93036BTR 19286.26202656  .00000351  00000-0  25357-3 0  9994
2 38481  73.9348 259.9554 0256509 291.8199  65.5818 13.85936375277936
COSMOS 2251 DEB         
1 38483U 93036BTT 19284.95870232  .00000242  00000-0  11777-3 0  9991
2 38483  74.2677  37.0092 0129345  91.1515 270.4452 14.18401589522282
COSMOS 2251 DEB         
1 38485U 93036BTV 19291.12730782  .00000674  00000-0  14476-3 0  9993
2 38485  74.0209 212.5832 0046500 196.2351 163.7328 14.60033944847741
COSMOS 2251 DEB         
1 38486U 93036BTW 19290.17699251  .00000961  00000-0  32768-3 0  9996
2 38486  73.9578 101.5280 0051096  29.1915  91.6282 14.37093824431653
COSMOS 2251 DEB         
1 38487U 93036BTX 19283.59619337  .00000565  00000-0  10597-3 0  9998
2 38487  74.0026 138.7005 0076325 139.8500 220.8343 14.65437894467767
COSMOS 2251 DEB         
1 39109U 93036BTY 19291.45760624  .00000251  00000-0  59220-4 0  9999
2 39109  74.0497 200.7246 0072671 163.3995 315.4245 14.57943901415989
COSMOS 2251 DEB         
1 39110U 93036BTZ 19285.19375293  .00000194  00000-0  40755-4 0  9998
2 39110  73.9592 101.9026 0110324 144.0719 336.5520 14.63148022383062
COSMOS 2251 DEB         
1 39111U 93036BUA 19291.91638510  .00000804  00000-0  22709-3 0  9996
2 39111  74.0353   8.8198 0025818 269.3290  90.4910 14.47104147323451
COSMOS 2251 DEB         
1 39545U 93036BUB 19292.15497862  .00000795  00000-0  43618-3 0  9998
2 39545  73.9363 106.9147 0208879 129.0570 349.2390 14.02823386413459
COSMOS 2251 DEB         
1 39546U 93036BUC 19291.99767434  .00000470  00000-0  98989-4 0  9997
2 39546  74.0036 170.9579 0074263 165.4423 194.8907 14.60806868471056
COSMOS 2251 DEB         
1 39547U 93036BUD 19292.51160017  .00000592  00000-0  16608-3 0  9993
2 39547  74.0231 346.6627 0018578 273.7625 151.4807 14.48159085390500
COSMOS 2251 DEB         
1 39548U 93036BUE 19292.65305986  .00002034  00000-0  40410-3 0  9996
2 39548  74.0103 270.8112 0007574  53.2450  64.8087 14.62813643405548
COSMOS 2251 DEB         
1 39549U 93036BUF 19287.74086984  .00001715  00000-0  36250-3 0  9997
2 39549  74.0225 300.3498 0013041  71.6050  47.5242 14.60070866312982
COSMOS 2251 DEB         
1 39550U 93036BUG 19290.19906413  .00000971  00000-0  27474-3 0  9991
2 39550  74.1157 115.1347 0116005 311.0511  48.0665 14.43112941344387
COSMOS 2251 DEB         
1 39552U 93036BUJ 19286.49098701  .00000854  00000-0  17016-3 0  9994
2 39552  74.0359 211.4190 0038684 231.8668 250.7903 14.63207579429213
COSMOS 2251 DEB         
1 39553U 93036BUK 19284.54580873  .00000093  00000-0  74916-4 0  9993
2 39553  74.0321 237.7909 0222360 162.5899 198.3016 13.91555497442025
COSMOS 2251 DEB         
1 39554U 93036BUL 19291.65293146  .00000545  00000-0  13355-3 0  9999
2 39554  74.0344 276.3821 0024267 259.9274 221.7556 14.54781989314538
COSMOS 2251 DEB         
1 39582U 93036BUM 19288.53963911  .00000555  00000-0  11790-3 0  9999
2 39582  74.0208 235.4661 0075909 185.7560 174.2742 14.59886948375193
COSMOS 2251 DEB         
1 39583U 93036BUN 19288.21923605  .00000473  00000-0  14587-3 0  9997
2 39583  73.9351 117.3333 0201719   3.8350 356.4287 14.33333301461884
COSMOS 2251 DEB         
1 39584U 93036BUP 19292.13929493  .00001320  00000-0  20946-3 0  9993
2 39584  74.1002 194.7663 0044101 174.2339 256.3724 14.72593064316088
COSMOS 2251 DEB         
1 39585U 93036BUQ 19291.15598170  .00000097  00000-0  29557-4 0  9997
2 39585  74.0433 233.7721 0073832 205.4416 154.3106 14.53338888298340
COSMOS 2251 DEB         
1 39587U 93036BUS 19291.94195412  .00001026  00000-0  73141-4 0  9999
2 39587  74.0110 154.1844 0107040 106.8321 254.4641 15.01656138514560
COSMOS 2251 DEB         
1 39588U 93036BUT 19292.26563865  .00001021  00000-0  31435-3 0  9991
2 39588  74.1310 128.0872 0075411 297.7617 185.0111 14.41129091401088
COSMOS 2251 DEB         
1 39589U 93036BUU 19291.58313969  .00003941  00000-0  34867-3 0  9999
2 39589  74.0084  19.9391 0027381 334.1957  85.5326 14.96385565525209
COSMOS 2251 DEB         
1 39590U 93036BUV 19292.42784900  .00001269  00000-0  29371-3 0  9997
2 39590  74.0293 315.2208 0018374 223.7365 200.5664 14.56090306435666
COSMOS 2251 DEB         
1 39591U 93036BUW 19292.09341528  .00000191  00000-0  74253-4 0  9999
2 39591  74.0228  66.7684 0032344   0.6997 121.5584 14.36111038750170
COSMOS 2251 DEB         
1 40218U 93036BUX 19282.77671630  .00000176  00000-0  68888-4 0  9991
2 40218  74.0318  84.2324 0018181 358.4806   1.6288 14.36400134294608
COSMOS 2251 DEB         
1 40220U 93036BUZ 19291.41342687  .00002360  00000-0  44554-3 0  9992
2 40220  74.0245 288.1955 0014685 206.9529 224.0356 14.64992952269883
COSMOS 2251 DEB         
1 40221U 93036BVA 19292.12295230  .00001748  00000-0  24565-3 0  9992
2 40221  73.9055 204.2096 0183486  74.0508 349.1223 14.67285417429618
COSMOS 2251 DEB         
1 40223U 93036BVC 19291.65971155  .00001079  00000-0  32938-3 0  9998
2 40223  73.9675  45.7580 0043480 354.7182  66.0744 14.42608747423906
COSMOS 2251 DEB         
1 40224U 93036BVD 19290.88102348  .00001075  00000-0  21150-3 0  9993
2 40224  73.9963 253.8398 0143168  21.9574   7.2489 14.57592641379902
COSMOS 2251 DEB         
1 40225U 93036BVE 19292.39231576  .00001072  00000-0  24160-3 0  9999
2 40225  74.0459 280.4867 0015920 224.9516 208.0065 14.57574396408245
COSMOS 2251 DEB         
1 40226U 93036BVF 19289.17738488  .00002217  00000-0  21108-3 0  9997
2 40226  74.0737  97.2100 0050302 309.9775 169.7527 14.93161148414074
COSMOS 2251 DEB         
1 40227U 93036BVG 19291.77378188  .00004425  00000-0  43466-3 0  9998
2 40227  74.0144  69.2212 0011407  67.8021 292.4371 14.92438718390700
COSMOS 2251 DEB         
1 40228U 93036BVH 19292.75400758  .00000136  00000-0  54847-4 0  9998
2 40228  74.0568  71.2707 0025937 334.8059  90.8109 14.36576498401847
COSMOS 2251 DEB         
1 40230U 93036BVK 19291.08864906  .00000263  00000-0  94655-4 0  9997
2 40230  74.0476  67.4771 0023105 321.7847 159.9004 14.38396846265849
COSMOS 2251 DEB         
1 40231U 93036BVL 19287.49402513  .00001605  00000-0  16013-3 0  9992
2 40231  74.0116 336.9501 0063999 292.6301  66.8120 14.91017939275176
COSMOS 2251 DEB         
1 40232U 93036BVM 19290.16406458  .00001626  00000-0  26800-3 0  9991
2 40232  74.1293 219.8577 0029537  60.7224   4.3912 14.71053500425304
COSMOS 2251 DEB         
1 40233U 93036BVN 19292.56526027  .00000424  00000-0  13588-3 0  9997
2 40233  73.9481 358.5975 0064006 215.7990 143.8868 14.41511340432019
COSMOS 2251 DEB         
1 40234U 93036BVP 19291.02957741  .00016852  00000-0  96057-3 0  9993
2 40234  74.0118 135.2050 0007571  79.0539  72.7206 15.12751861274740
COSMOS 2251 DEB         
1 40235U 93036BVQ 19288.91520924  .00000687  00000-0  20231-3 0  9997
2 40235  74.0326   5.9434 0020450 302.9370 178.3885 14.45446803412936
COSMOS 2251 DEB         
1 40236U 93036BVR 19292.72281901  .00000255  00000-0  30859-3 0  9999
2 40236  73.5431  63.0814 0553027 148.5642 214.9786 13.19660156261705
COSMOS 2251 DEB         
1 40237U 93036BVS 19292.58272083  .00000815  00000-0  22846-3 0  9994
2 40237  74.0479   5.1378 0014694 259.7041 165.7912 14.47552735311532
COSMOS 2251 DEB         
1 40238U 93036BVT 19289.56236871  .00000256  00000-0  29539-3 0  9999
2 40238  73.9923 248.8402 0583645 291.1013  62.8645 13.18017309431987
